{"fetched_at":"2026-07-13T07:47:58.237Z","source":"https://celestrak.org/NORAD/elements/gp.php?GROUP=qianfan&FORMAT=JSON","constellation":"qianfan","records":[{"OBJECT_NAME":"QIANFAN-161","OBJECT_ID":"2026-108S","EPOCH":"2026-07-10T23:39:47.490048","CLASSIFICATION_TYPE":"U","MEAN_MOTION":13.80034218,"ECCENTRICITY":0.0019933,"INCLINATION":89.0095,"RA_OF_ASC_NODE":19.63,"ARG_OF_PERICENTER":52.7779,"MEAN_ANOMALY":307.5204,"EPHEMERIS_TYPE":0,"NORAD_CAT_ID":69120,"ELEMENT_SET_NO":999,"REV_AT_EPOCH":767,"BSTAR":-2.1326483,"MEAN_MOTION_DOT":-0.02065796,"MEAN_MOTION_DDOT":0},{"OBJECT_NAME":"QIANFAN-162","OBJECT_ID":"2026-108T","EPOCH":"2026-07-10T23:02:37.303008","CLASSIFICATION_TYPE":"U","MEAN_MOTION":13.73384966,"ECCENTRICITY":0.0019965,"INCLINATION":89.0097,"RA_OF_ASC_NODE":19.6412,"ARG_OF_PERICENTER":26.0878,"MEAN_ANOMALY":334.1287,"EPHEMERIS_TYPE":0,"NORAD_CAT_ID":69121,"ELEMENT_SET_NO":999,"REV_AT_EPOCH":765,"BSTAR":-2.2951227,"MEAN_MOTION_DOT":-0.0199509,"MEAN_MOTION_DDOT":0},{"OBJECT_NAME":"QIANFAN-163","OBJECT_ID":"2026-121A","EPOCH":"2026-07-08T23:20:22.023168","CLASSIFICATION_TYPE":"U","MEAN_MOTION":13.53894414,"ECCENTRICITY":0.00204807,"INCLINATION":89.0049,"RA_OF_ASC_NODE":298.3591,"ARG_OF_PERICENTER":118.563,"MEAN_ANOMALY":241.7588,"EPHEMERIS_TYPE":0,"NORAD_CAT_ID":69325,"ELEMENT_SET_NO":999,"REV_AT_EPOCH":511,"BSTAR":-0.000006639878,"MEAN_MOTION_DOT":8e-8,"MEAN_MOTION_DDOT":0},{"OBJECT_NAME":"QIANFAN-164","OBJECT_ID":"2026-121B","EPOCH":"2026-07-12T18:46:06.724128","CLASSIFICATION_TYPE":"U","MEAN_MOTION":13.49695424,"ECCENTRICITY":0.0022831,"INCLINATION":89.0183,"RA_OF_ASC_NODE":297.9605,"ARG_OF_PERICENTER":114.9403,"MEAN_ANOMALY":245.4123,"EPHEMERIS_TYPE":0,"NORAD_CAT_ID":69326,"ELEMENT_SET_NO":999,"REV_AT_EPOCH":562,"BSTAR":0.000074993,"MEAN_MOTION_DOT":6e-7,"MEAN_MOTION_DDOT":0},{"OBJECT_NAME":"QIANFAN-165","OBJECT_ID":"2026-124A","EPOCH":"2026-07-12T20:15:28.816992","CLASSIFICATION_TYPE":"U","MEAN_MOTION":13.92331709,"ECCENTRICITY":0.00059,"INCLINATION":88.9993,"RA_OF_ASC_NODE":359.1619,"ARG_OF_PERICENTER":80.5127,"MEAN_ANOMALY":279.6714,"EPHEMERIS_TYPE":0,"NORAD_CAT_ID":69382,"ELEMENT_SET_NO":999,"REV_AT_EPOCH":543,"BSTAR":-1.5937,"MEAN_MOTION_DOT":-0.019114,"MEAN_MOTION_DDOT":0},{"OBJECT_NAME":"QIANFAN-166","OBJECT_ID":"2026-124B","EPOCH":"2026-07-12T19:31:38.458848","CLASSIFICATION_TYPE":"U","MEAN_MOTION":13.94547285,"ECCENTRICITY":0.0008372,"INCLINATION":88.9991,"RA_OF_ASC_NODE":359.1575,"ARG_OF_PERICENTER":96.315,"MEAN_ANOMALY":263.898,"EPHEMERIS_TYPE":0,"NORAD_CAT_ID":69383,"ELEMENT_SET_NO":999,"REV_AT_EPOCH":543,"BSTAR":-1.5349,"MEAN_MOTION_DOT":-0.01913304,"MEAN_MOTION_DDOT":0},{"OBJECT_NAME":"QIANFAN-167","OBJECT_ID":"2026-124C","EPOCH":"2026-07-12T20:05:49.860096","CLASSIFICATION_TYPE":"U","MEAN_MOTION":13.92727458,"ECCENTRICITY":0.0008802,"INCLINATION":88.999,"RA_OF_ASC_NODE":359.1608,"ARG_OF_PERICENTER":89.2577,"MEAN_ANOMALY":270.9606,"EPHEMERIS_TYPE":0,"NORAD_CAT_ID":69384,"ELEMENT_SET_NO":999,"REV_AT_EPOCH":543,"BSTAR":-1.8156,"MEAN_MOTION_DOT":-0.02172699,"MEAN_MOTION_DDOT":0},{"OBJECT_NAME":"QIANFAN-168","OBJECT_ID":"2026-124D","EPOCH":"2026-07-12T17:39:04.627008","CLASSIFICATION_TYPE":"U","MEAN_MOTION":13.9328097,"ECCENTRICITY":0.0008293,"INCLINATION":88.9993,"RA_OF_ASC_NODE":359.1633,"ARG_OF_PERICENTER":91.0255,"MEAN_ANOMALY":269.187,"EPHEMERIS_TYPE":0,"NORAD_CAT_ID":69385,"ELEMENT_SET_NO":999,"REV_AT_EPOCH":542,"BSTAR":-1.6184,"MEAN_MOTION_DOT":-0.01969488,"MEAN_MOTION_DDOT":0},{"OBJECT_NAME":"QIANFAN-169","OBJECT_ID":"2026-124E","EPOCH":"2026-07-12T19:02:07.022112","CLASSIFICATION_TYPE":"U","MEAN_MOTION":13.9429742,"ECCENTRICITY":0.0009858,"INCLINATION":88.9989,"RA_OF_ASC_NODE":359.153,"ARG_OF_PERICENTER":97.714,"MEAN_ANOMALY":262.5155,"EPHEMERIS_TYPE":0,"NORAD_CAT_ID":69386,"ELEMENT_SET_NO":999,"REV_AT_EPOCH":543,"BSTAR":-1.5311,"MEAN_MOTION_DOT":-0.01901274,"MEAN_MOTION_DDOT":0},{"OBJECT_NAME":"QIANFAN-170","OBJECT_ID":"2026-124F","EPOCH":"2026-07-12T18:31:39.440928","CLASSIFICATION_TYPE":"U","MEAN_MOTION":13.96092845,"ECCENTRICITY":0.0009754,"INCLINATION":88.9991,"RA_OF_ASC_NODE":359.1504,"ARG_OF_PERICENTER":93.8761,"MEAN_ANOMALY":266.3531,"EPHEMERIS_TYPE":0,"NORAD_CAT_ID":69387,"ELEMENT_SET_NO":999,"REV_AT_EPOCH":543,"BSTAR":-1.4759,"MEAN_MOTION_DOT":-0.01891744,"MEAN_MOTION_DDOT":0},{"OBJECT_NAME":"QIANFAN-171","OBJECT_ID":"2026-124G","EPOCH":"2026-07-12T19:53:04.761312","CLASSIFICATION_TYPE":"U","MEAN_MOTION":13.96019834,"ECCENTRICITY":0.0009802,"INCLINATION":88.9989,"RA_OF_ASC_NODE":359.1405,"ARG_OF_PERICENTER":113.4121,"MEAN_ANOMALY":246.8087,"EPHEMERIS_TYPE":0,"NORAD_CAT_ID":69388,"ELEMENT_SET_NO":999,"REV_AT_EPOCH":544,"BSTAR":-1.4388,"MEAN_MOTION_DOT":-0.01825081,"MEAN_MOTION_DDOT":0},{"OBJECT_NAME":"QIANFAN-172","OBJECT_ID":"2026-124H","EPOCH":"2026-07-12T19:57:29.261088","CLASSIFICATION_TYPE":"U","MEAN_MOTION":13.97319378,"ECCENTRICITY":0.0010019,"INCLINATION":88.999,"RA_OF_ASC_NODE":359.1417,"ARG_OF_PERICENTER":86.9405,"MEAN_ANOMALY":273.2919,"EPHEMERIS_TYPE":0,"NORAD_CAT_ID":69389,"ELEMENT_SET_NO":999,"REV_AT_EPOCH":544,"BSTAR":-1.5114,"MEAN_MOTION_DOT":-0.01973676,"MEAN_MOTION_DDOT":0},{"OBJECT_NAME":"QIANFAN-173","OBJECT_ID":"2026-124J","EPOCH":"2026-07-12T19:34:45.215040","CLASSIFICATION_TYPE":"U","MEAN_MOTION":13.97347617,"ECCENTRICITY":0.0010086,"INCLINATION":88.9989,"RA_OF_ASC_NODE":359.1387,"ARG_OF_PERICENTER":91.5769,"MEAN_ANOMALY":268.6563,"EPHEMERIS_TYPE":0,"NORAD_CAT_ID":69390,"ELEMENT_SET_NO":999,"REV_AT_EPOCH":544,"BSTAR":-1.4801,"MEAN_MOTION_DOT":-0.01936338,"MEAN_MOTION_DDOT":0},{"OBJECT_NAME":"QIANFAN-174","OBJECT_ID":"2026-124K","EPOCH":"2026-07-12T19:08:57.950016","CLASSIFICATION_TYPE":"U","MEAN_MOTION":14.01711143,"ECCENTRICITY":0.0005484,"INCLINATION":88.9985,"RA_OF_ASC_NODE":359.1361,"ARG_OF_PERICENTER":163.9561,"MEAN_ANOMALY":196.1793,"EPHEMERIS_TYPE":0,"NORAD_CAT_ID":69391,"ELEMENT_SET_NO":999,"REV_AT_EPOCH":543,"BSTAR":-1.5746,"MEAN_MOTION_DOT":-0.02202889,"MEAN_MOTION_DDOT":0},{"OBJECT_NAME":"QIANFAN-175","OBJECT_ID":"2026-124L","EPOCH":"2026-07-12T19:09:00.916128","CLASSIFICATION_TYPE":"U","MEAN_MOTION":13.97886597,"ECCENTRICITY":0.0010624,"INCLINATION":88.9993,"RA_OF_ASC_NODE":359.1353,"ARG_OF_PERICENTER":93.4195,"MEAN_ANOMALY":266.8198,"EPHEMERIS_TYPE":0,"NORAD_CAT_ID":69392,"ELEMENT_SET_NO":999,"REV_AT_EPOCH":544,"BSTAR":-1.4576,"MEAN_MOTION_DOT":-0.01925776,"MEAN_MOTION_DDOT":0},{"OBJECT_NAME":"QIANFAN-176","OBJECT_ID":"2026-124M","EPOCH":"2026-07-12T19:04:32.229408","CLASSIFICATION_TYPE":"U","MEAN_MOTION":13.99602377,"ECCENTRICITY":0.0006778,"INCLINATION":88.9995,"RA_OF_ASC_NODE":359.1349,"ARG_OF_PERICENTER":73.8671,"MEAN_ANOMALY":286.3253,"EPHEMERIS_TYPE":0,"NORAD_CAT_ID":69393,"ELEMENT_SET_NO":999,"REV_AT_EPOCH":543,"BSTAR":-1.4895,"MEAN_MOTION_DOT":-0.02020938,"MEAN_MOTION_DDOT":0}]}
